[{"OBJECT_NAME":"NOAA 1","OBJECT_ID":"1970-106A","EPOCH":"2026-03-06T08:47:36.695616","MEAN_MOTION":12.54049239,"ECCENTRICITY":0.00317178,"INCLINATION":101.3519,"RA_OF_ASC_NODE":104.5366,"ARG_OF_PERICENTER":187.3652,"MEAN_ANOMALY":184.6622,"EPHEMERIS_TYPE":0,"CLASSIFICATION_TYPE":"U","NORAD_CAT_ID":4793,"ELEMENT_SET_NO":999,"REV_AT_EPOCH":52780,"BSTAR":5.3783626e-5,"MEAN_MOTION_DOT":-3.4e-7,"MEAN_MOTION_DDOT":0},{"OBJECT_NAME":"NOAA 2 (ITOS-D)","OBJECT_ID":"1972-082A","EPOCH":"2026-03-06T07:01:17.804352","MEAN_MOTION":12.53211722,"ECCENTRICITY":0.00039993,"INCLINATION":102.0167,"RA_OF_ASC_NODE":82.7075,"ARG_OF_PERICENTER":11.7454,"MEAN_ANOMALY":359.4138,"EPHEMERIS_TYPE":0,"CLASSIFICATION_TYPE":"U","NORAD_CAT_ID":6235,"ELEMENT_SET_NO":999,"REV_AT_EPOCH":44206,"BSTAR":3.3398805e-5,"MEAN_MOTION_DOT":-4.1e-7,"MEAN_MOTION_DDOT":0},{"OBJECT_NAME":"NOAA 3","OBJECT_ID":"1973-086A","EPOCH":"2026-03-06T13:14:09.267360","MEAN_MOTION":12.40391675,"ECCENTRICITY":0.00061922,"INCLINATION":102.2908,"RA_OF_ASC_NODE":78.4993,"ARG_OF_PERICENTER":314.7635,"MEAN_ANOMALY":220.0882,"EPHEMERIS_TYPE":0,"CLASSIFICATION_TYPE":"U","NORAD_CAT_ID":6920,"ELEMENT_SET_NO":999,"REV_AT_EPOCH":36917,"BSTAR":1.8156477e-5,"MEAN_MOTION_DOT":-4.4e-7,"MEAN_MOTION_DDOT":0},{"OBJECT_NAME":"NOAA 4","OBJECT_ID":"1974-089A","EPOCH":"2026-03-06T13:09:47.029536","MEAN_MOTION":12.53201606,"ECCENTRICITY":0.00091407,"INCLINATION":102.0073,"RA_OF_ASC_NODE":77.2459,"ARG_OF_PERICENTER":34.7163,"MEAN_ANOMALY":142.3604,"EPHEMERIS_TYPE":0,"CLASSIFICATION_TYPE":"U","NORAD_CAT_ID":7529,"ELEMENT_SET_NO":999,"REV_AT_EPOCH":34666,"BSTAR":-1.0474017e-5,"MEAN_MOTION_DOT":-4.8e-7,"MEAN_MOTION_DDOT":0},{"OBJECT_NAME":"NOAA 5","OBJECT_ID":"1976-077A","EPOCH":"2026-03-06T11:17:22.555680","MEAN_MOTION":12.37828286,"ECCENTRICITY":0.00097816,"INCLINATION":102.2957,"RA_OF_ASC_NODE":50.9603,"ARG_OF_PERICENTER":166.5539,"MEAN_ANOMALY":3.9696,"EPHEMERIS_TYPE":0,"CLASSIFICATION_TYPE":"U","NORAD_CAT_ID":9057,"ELEMENT_SET_NO":999,"REV_AT_EPOCH":24176,"BSTAR":7.795865e-5,"MEAN_MOTION_DOT":-3.6e-7,"MEAN_MOTION_DDOT":0},{"OBJECT_NAME":"TIROS N","OBJECT_ID":"1978-096A","EPOCH":"2026-03-06T11:57:33.974496","MEAN_MOTION":14.1933691,"ECCENTRICITY":0.001057,"INCLINATION":98.4638,"RA_OF_ASC_NODE":91.1599,"ARG_OF_PERICENTER":174.1195,"MEAN_ANOMALY":186.0108,"EPHEMERIS_TYPE":0,"CLASSIFICATION_TYPE":"U","NORAD_CAT_ID":11060,"ELEMENT_SET_NO":999,"REV_AT_EPOCH":66418,"BSTAR":0.00012844,"MEAN_MOTION_DOT":2.28e-6,"MEAN_MOTION_DDOT":0},{"OBJECT_NAME":"NOAA 6","OBJECT_ID":"1979-057A","EPOCH":"2026-03-06T08:16:58.084608","MEAN_MOTION":14.35430795,"ECCENTRICITY":0.00095367,"INCLINATION":98.5755,"RA_OF_ASC_NODE":95.5189,"ARG_OF_PERICENTER":196.9298,"MEAN_ANOMALY":163.157,"EPHEMERIS_TYPE":0,"CLASSIFICATION_TYPE":"U","NORAD_CAT_ID":11416,"ELEMENT_SET_NO":999,"REV_AT_EPOCH":43620,"BSTAR":0.00016497622,"MEAN_MOTION_DOT":4.3e-6,"MEAN_MOTION_DDOT":0},{"OBJECT_NAME":"NOAA 7","OBJECT_ID":"1981-059A","EPOCH":"2026-03-06T09:57:20.556864","MEAN_MOTION":14.17772523,"ECCENTRICITY":0.00111963,"INCLINATION":98.8066,"RA_OF_ASC_NODE":133.4935,"ARG_OF_PERICENTER":197.2719,"MEAN_ANOMALY":162.8076,"EPHEMERIS_TYPE":0,"CLASSIFICATION_TYPE":"U","NORAD_CAT_ID":12553,"ELEMENT_SET_NO":999,"REV_AT_EPOCH":31018,"BSTAR":6.1516137e-5,"MEAN_MOTION_DOT":8.1e-7,"MEAN_MOTION_DDOT":0},{"OBJECT_NAME":"NOAA 8","OBJECT_ID":"1983-022A","EPOCH":"2026-03-06T11:24:14.736384","MEAN_MOTION":14.29765468,"ECCENTRICITY":0.00144884,"INCLINATION":98.7374,"RA_OF_ASC_NODE":78.2619,"ARG_OF_PERICENTER":195.0887,"MEAN_ANOMALY":164.9864,"EPHEMERIS_TYPE":0,"CLASSIFICATION_TYPE":"U","NORAD_CAT_ID":13923,"ELEMENT_SET_NO":999,"REV_AT_EPOCH":23639,"BSTAR":9.7955193e-5,"MEAN_MOTION_DOT":2.07e-6,"MEAN_MOTION_DDOT":0},{"OBJECT_NAME":"NOAA 9","OBJECT_ID":"1984-123A","EPOCH":"2026-03-06T07:36:58.398048","MEAN_MOTION":14.17037665,"ECCENTRICITY":0.00136725,"INCLINATION":99.1099,"RA_OF_ASC_NODE":89.5222,"ARG_OF_PERICENTER":281.9733,"MEAN_ANOMALY":88.542,"EPHEMERIS_TYPE":0,"CLASSIFICATION_TYPE":"U","NORAD_CAT_ID":15427,"ELEMENT_SET_NO":999,"REV_AT_EPOCH":12885,"BSTAR":0.00010709139,"MEAN_MOTION_DOT":1.69e-6,"MEAN_MOTION_DDOT":0},{"OBJECT_NAME":"NOAA 10","OBJECT_ID":"1986-073A","EPOCH":"2026-03-06T11:35:53.509344","MEAN_MOTION":14.2914279,"ECCENTRICITY":0.00111245,"INCLINATION":98.6998,"RA_OF_ASC_NODE":58.8824,"ARG_OF_PERICENTER":299.4616,"MEAN_ANOMALY":224.8806,"EPHEMERIS_TYPE":0,"CLASSIFICATION_TYPE":"U","NORAD_CAT_ID":16969,"ELEMENT_SET_NO":999,"REV_AT_EPOCH":5474,"BSTAR":0.00010799266,"MEAN_MOTION_DOT":2.29e-6,"MEAN_MOTION_DDOT":0},{"OBJECT_NAME":"NOAA 11","OBJECT_ID":"1988-089A","EPOCH":"2026-03-06T19:38:28.122720","MEAN_MOTION":14.15819993,"ECCENTRICITY":0.0010148,"INCLINATION":98.6091,"RA_OF_ASC_NODE":14.9556,"ARG_OF_PERICENTER":228.502,"MEAN_ANOMALY":131.5284,"EPHEMERIS_TYPE":0,"CLASSIFICATION_TYPE":"U","NORAD_CAT_ID":19531,"ELEMENT_SET_NO":999,"REV_AT_EPOCH":93299,"BSTAR":7.9101e-5,"MEAN_MOTION_DOT":1.13e-6,"MEAN_MOTION_DDOT":0},{"OBJECT_NAME":"NOAA 12","OBJECT_ID":"1991-032A","EPOCH":"2026-03-06T19:23:27.612672","MEAN_MOTION":14.26716533,"ECCENTRICITY":0.001308,"INCLINATION":98.6151,"RA_OF_ASC_NODE":55.8541,"ARG_OF_PERICENTER":332.007,"MEAN_ANOMALY":28.0405,"EPHEMERIS_TYPE":0,"CLASSIFICATION_TYPE":"U","NORAD_CAT_ID":21263,"ELEMENT_SET_NO":999,"REV_AT_EPOCH":81036,"BSTAR":9.3468e-5,"MEAN_MOTION_DOT":1.83e-6,"MEAN_MOTION_DDOT":0},{"OBJECT_NAME":"NOAA 13","OBJECT_ID":"1993-050A","EPOCH":"2026-03-06T09:27:11.063520","MEAN_MOTION":14.13635086,"ECCENTRICITY":0.00104952,"INCLINATION":98.693,"RA_OF_ASC_NODE":13.2331,"ARG_OF_PERICENTER":65.5349,"MEAN_ANOMALY":294.6917,"EPHEMERIS_TYPE":0,"CLASSIFICATION_TYPE":"U","NORAD_CAT_ID":22739,"ELEMENT_SET_NO":999,"REV_AT_EPOCH":67885,"BSTAR":0.00011584399,"MEAN_MOTION_DOT":1.76e-6,"MEAN_MOTION_DDOT":0},{"OBJECT_NAME":"NOAA 14","OBJECT_ID":"1994-089A","EPOCH":"2026-03-06T20:28:11.498304","MEAN_MOTION":14.14654542,"ECCENTRICITY":0.0009949,"INCLINATION":98.5019,"RA_OF_ASC_NODE":40.2026,"ARG_OF_PERICENTER":24.3004,"MEAN_ANOMALY":335.8638,"EPHEMERIS_TYPE":0,"CLASSIFICATION_TYPE":"U","NORAD_CAT_ID":23455,"ELEMENT_SET_NO":999,"REV_AT_EPOCH":60873,"BSTAR":7.8989e-5,"MEAN_MOTION_DOT":1.11e-6,"MEAN_MOTION_DDOT":0},{"OBJECT_NAME":"NOAA 15","OBJECT_ID":"1998-030A","EPOCH":"2026-03-06T19:46:43.857408","MEAN_MOTION":14.27111239,"ECCENTRICITY":0.0009112,"INCLINATION":98.5166,"RA_OF_ASC_NODE":89.1802,"ARG_OF_PERICENTER":289.6128,"MEAN_ANOMALY":70.4069,"EPHEMERIS_TYPE":0,"CLASSIFICATION_TYPE":"U","NORAD_CAT_ID":25338,"ELEMENT_SET_NO":999,"REV_AT_EPOCH":44669,"BSTAR":9.8166e-5,"MEAN_MOTION_DOT":1.97e-6,"MEAN_MOTION_DDOT":0},{"OBJECT_NAME":"NOAA 16","OBJECT_ID":"2000-055A","EPOCH":"2026-03-06T13:19:22.115712","MEAN_MOTION":14.13897179,"ECCENTRICITY":0.00094638,"INCLINATION":98.4706,"RA_OF_ASC_NODE":85.2212,"ARG_OF_PERICENTER":232.0639,"MEAN_ANOMALY":127.968,"EPHEMERIS_TYPE":0,"CLASSIFICATION_TYPE":"U","NORAD_CAT_ID":26536,"ELEMENT_SET_NO":999,"REV_AT_EPOCH":60922,"BSTAR":9.6067494e-5,"MEAN_MOTION_DOT":1.41e-6,"MEAN_MOTION_DDOT":0}]
